STARLINK-32299          
1 61702U 24195R   26068.55667478 -.00000249  00000+0  37123-5 0  9993
2 61702  53.1605 155.7910 0001160 111.9829 248.1295 15.30187677 77230
TEVEL2-6                
1 63215U 25052F   26068.64958975  .00021046  00000+0  70909-3 0  9996
2 63215  97.4016 325.0381 0004769  95.6604 264.5181 15.30760889 54861
